{
  "norad_id": 51651,
  "name": "ONEWEB-0464",
  "history": [
    {
      "epoch": "2026-03-28T22:24:48.764736Z",
      "apogee_km": 1223.2418529710976,
      "perigee_km": 1220.1759231429369,
      "latitude_deg": -4.284996649167703e-05,
      "longitude_deg": -110.29711553322801,
      "height_km": 1224.6051212989269,
      "semi_major_axis_km": 7599.845888057017,
      "eccentricity": 0.00020171,
      "inclination_deg": 87.8807,
      "raan_deg": 52.2533,
      "arg_perigee_deg": 90.4488,
      "mean_anomaly_deg": 269.687,
      "mean_motion_rev_day": 13.10374954
    },
    {
      "epoch": "2026-03-29T03:54:40.581216Z",
      "apogee_km": 1223.24336455518,
      "perigee_km": 1220.1760664208095,
      "latitude_deg": 4.71291795281356e-05,
      "longitude_deg": 166.96560221985868,
      "height_km": 1224.603845249683,
      "semi_major_axis_km": 7599.8467154879945,
      "eccentricity": 0.0002018,
      "inclination_deg": 87.8808,
      "raan_deg": 52.2077,
      "arg_perigee_deg": 90.3706,
      "mean_anomaly_deg": 269.7653,
      "mean_motion_rev_day": 13.1037474
    },
    {
      "epoch": "2026-03-30T03:44:05.159328Z",
      "apogee_km": 1223.249809700993,
      "perigee_km": 1220.1749106498655,
      "latitude_deg": -1.0662319556511609e-05,
      "longitude_deg": 168.436895767813,
      "height_km": 1224.5963290389002,
      "semi_major_axis_km": 7599.849360175429,
      "eccentricity": 0.0002023,
      "inclination_deg": 87.8809,
      "raan_deg": 52.0098,
      "arg_perigee_deg": 89.9911,
      "mean_anomaly_deg": 270.1448,
      "mean_motion_rev_day": 13.10374056
    },
    {
      "epoch": "2026-03-30T14:43:48.883008Z",
      "apogee_km": 1223.2536483965414,
      "perigee_km": 1220.1781399273332,
      "latitude_deg": -1.5087596089315547e-05,
      "longitude_deg": 2.9617458658710243,
      "height_km": 1224.5966813591338,
      "semi_major_axis_km": 7599.852894161937,
      "eccentricity": 0.00020234,
      "inclination_deg": 87.881,
      "raan_deg": 51.9184,
      "arg_perigee_deg": 89.8726,
      "mean_anomaly_deg": 270.2633,
      "mean_motion_rev_day": 13.10373142
    },
    {
      "epoch": "2026-03-30T22:03:37.996992Z",
      "apogee_km": 1223.2534550320179,
      "perigee_km": 1220.1779466410444,
      "latitude_deg": -1.4911435536625443e-05,
      "longitude_deg": -107.35484048618396,
      "height_km": 1224.5939674631331,
      "semi_major_axis_km": 7599.852700836531,
      "eccentricity": 0.00020234,
      "inclination_deg": 87.881,
      "raan_deg": 51.8575,
      "arg_perigee_deg": 89.7787,
      "mean_anomaly_deg": 270.3572,
      "mean_motion_rev_day": 13.10373192
    },
    {
      "epoch": "2026-03-31T14:33:13.592448Z",
      "apogee_km": 1223.2515109300593,
      "perigee_km": 1220.1857291729302,
      "latitude_deg": -4.018150371717038e-05,
      "longitude_deg": 4.432492612105164,
      "height_km": 1224.5859946303647,
      "semi_major_axis_km": 7599.855620051494,
      "eccentricity": 0.0002017,
      "inclination_deg": 87.881,
      "raan_deg": 51.7205,
      "arg_perigee_deg": 89.3704,
      "mean_anomaly_deg": 270.7654,
      "mean_motion_rev_day": 13.10372437
    },
    {
      "epoch": "2026-04-01T14:22:38.440128Z",
      "apogee_km": 1223.2719916246624,
      "perigee_km": 1220.171249307511,
      "latitude_deg": -3.415286114242671e-06,
      "longitude_deg": 5.902964052097541,
      "height_km": 1224.5884901311308,
      "semi_major_axis_km": 7599.858620466086,
      "eccentricity": 0.000204,
      "inclination_deg": 87.8811,
      "raan_deg": 51.5229,
      "arg_perigee_deg": 89.3606,
      "mean_anomaly_deg": 270.7755,
      "mean_motion_rev_day": 13.10371661
    },
    {
      "epoch": "2026-04-02T19:41:55.342752Z",
      "apogee_km": 1223.2988634869207,
      "perigee_km": 1220.152520332469,
      "latitude_deg": -4.551601484113206e-05,
      "longitude_deg": -75.36494957208214,
      "height_km": 1224.5843670842162,
      "semi_major_axis_km": 7599.862691909694,
      "eccentricity": 0.000207,
      "inclination_deg": 87.8812,
      "raan_deg": 51.2796,
      "arg_perigee_deg": 89.0732,
      "mean_anomaly_deg": 271.0632,
      "mean_motion_rev_day": 13.10370608
    },
    {
      "epoch": "2026-04-02T21:31:52.672224Z",
      "apogee_km": 1223.296241388378,
      "perigee_km": 1220.1564338490734,
      "latitude_deg": 4.420639714750456e-06,
      "longitude_deg": -102.94428234000475,
      "height_km": 1224.5835994254064,
      "semi_major_axis_km": 7599.863337618725,
      "eccentricity": 0.00020657,
      "inclination_deg": 87.8812,
      "raan_deg": 51.2644,
      "arg_perigee_deg": 89.0197,
      "mean_anomaly_deg": 271.1167,
      "mean_motion_rev_day": 13.10370441
    },
    {
      "epoch": "2026-04-03T21:21:17.664192Z",
      "apogee_km": 1223.2916928964705,
      "perigee_km": 1220.16054929058,
      "latitude_deg": -2.3669007571002957e-05,
      "longitude_deg": -101.47461741973414,
      "height_km": 1224.565235992043,
      "semi_major_axis_km": 7599.8631210935255,
      "eccentricity": 0.000206,
      "inclination_deg": 87.8813,
      "raan_deg": 51.0666,
      "arg_perigee_deg": 88.3522,
      "mean_anomaly_deg": 271.7841,
      "mean_motion_rev_day": 13.10370497
    },
    {
      "epoch": "2026-04-04T06:31:04.296864Z",
      "apogee_km": 1223.2900482915602,
      "perigee_km": 1220.169694951409,
      "latitude_deg": -3.9029917955781336e-05,
      "longitude_deg": 120.62866981888014,
      "height_km": 1224.5623714404464,
      "semi_major_axis_km": 7599.866871621484,
      "eccentricity": 0.00020529,
      "inclination_deg": 87.8812,
      "raan_deg": 50.9905,
      "arg_perigee_deg": 88.103,
      "mean_anomaly_deg": 272.0332,
      "mean_motion_rev_day": 13.10369527
    },
    {
      "epoch": "2026-04-05T13:40:18.561792Z",
      "apogee_km": 1223.3006716324471,
      "perigee_km": 1220.149768755955,
      "latitude_deg": 3.64114119754677e-05,
      "longitude_deg": 11.781185907198907,
      "height_km": 1224.5477988761847,
      "semi_major_axis_km": 7599.862220194201,
      "eccentricity": 0.0002073,
      "inclination_deg": 87.8815,
      "raan_deg": 50.7319,
      "arg_perigee_deg": 87.762,
      "mean_anomaly_deg": 272.3745,
      "mean_motion_rev_day": 13.1037073
    },
    {
      "epoch": "2026-04-05T21:00:07.833888Z",
      "apogee_km": 1223.3045855925084,
      "perigee_km": 1220.1476024632484,
      "latitude_deg": -5.153699265114903e-06,
      "longitude_deg": -98.53596348491227,
      "height_km": 1224.5416982342142,
      "semi_major_axis_km": 7599.863094027878,
      "eccentricity": 0.0002077,
      "inclination_deg": 87.8815,
      "raan_deg": 50.6711,
      "arg_perigee_deg": 87.513,
      "mean_anomaly_deg": 272.6235,
      "mean_motion_rev_day": 13.10370504
    },
    {
      "epoch": "2026-04-06T06:09:54.412128Z",
      "apogee_km": 1223.315286989594,
      "perigee_km": 1220.1396076316396,
      "latitude_deg": 5.4410983015857505e-05,
      "longitude_deg": 123.56755333750527,
      "height_km": 1224.542532095875,
      "semi_major_axis_km": 7599.864447310616,
      "eccentricity": 0.00020893,
      "inclination_deg": 87.8817,
      "raan_deg": 50.595,
      "arg_perigee_deg": 87.51,
      "mean_anomaly_deg": 272.6267,
      "mean_motion_rev_day": 13.10370154
    },
    {
      "epoch": "2026-04-07T13:19:08.616576Z",
      "apogee_km": 1223.3275132001945,
      "perigee_km": 1220.1193081264373,
      "latitude_deg": 2.555143217228299e-05,
      "longitude_deg": 14.720216518324046,
      "height_km": 1224.516776481819,
      "semi_major_axis_km": 7599.860410663316,
      "eccentricity": 0.00021107,
      "inclination_deg": 87.8819,
      "raan_deg": 50.3363,
      "arg_perigee_deg": 86.7597,
      "mean_anomaly_deg": 273.3772,
      "mean_motion_rev_day": 13.10371198
    },
    {
      "epoch": "2026-04-07T20:38:57.795360Z",
      "apogee_km": 1223.3288359808348,
      "perigee_km": 1220.1110565497856,
      "latitude_deg": 6.162235219799629e-05,
      "longitude_deg": -95.59654050076553,
      "height_km": 1224.5043279430258,
      "semi_major_axis_km": 7599.85694626531,
      "eccentricity": 0.0002117,
      "inclination_deg": 87.882,
      "raan_deg": 50.2755,
      "arg_perigee_deg": 86.4494,
      "mean_anomaly_deg": 273.6876,
      "mean_motion_rev_day": 13.10372094
    },
    {
      "epoch": "2026-04-08T07:38:41.595936Z",
      "apogee_km": 1223.334402041999,
      "perigee_km": 1220.1058307418134,
      "latitude_deg": -2.1809355068588847e-05,
      "longitude_deg": 98.9281834906356,
      "height_km": 1224.5060449086911,
      "semi_major_axis_km": 7599.857116391906,
      "eccentricity": 0.00021241,
      "inclination_deg": 87.8823,
      "raan_deg": 50.1843,
      "arg_perigee_deg": 86.5162,
      "mean_anomaly_deg": 273.6208,
      "mean_motion_rev_day": 13.1037205
    },
    {
      "epoch": "2026-04-09T18:27:50.049792Z",
      "apogee_km": 1223.3283820661773,
      "perigee_km": 1220.0969259932835,
      "latitude_deg": 8.209949209161044e-05,
      "longitude_deg": -65.0759075618916,
      "height_km": 1224.4745579851933,
      "semi_major_axis_km": 7599.84965402973,
      "eccentricity": 0.0002126,
      "inclination_deg": 87.8827,
      "raan_deg": 49.8954,
      "arg_perigee_deg": 85.6659,
      "mean_anomaly_deg": 274.4712,
      "mean_motion_rev_day": 13.1037398
    },
    {
      "epoch": "2026-04-10T07:17:30.986304Z",
      "apogee_km": 1223.3288715599483,
      "perigee_km": 1220.089817048006,
      "latitude_deg": 3.5069214426814736e-05,
      "longitude_deg": 101.87019171497168,
      "height_km": 1224.4623695377845,
      "semi_major_axis_km": 7599.846344303976,
      "eccentricity": 0.0002131,
      "inclination_deg": 87.8828,
      "raan_deg": 49.7889,
      "arg_perigee_deg": 85.361,
      "mean_anomaly_deg": 274.7761,
      "mean_motion_rev_day": 13.10374836
    }
  ]
}